     2.100          NAVIGATION                              RINEX VERSION / TYPE
fic2rin                                 12/18/2017 00:05:12 PGM / RUN BY / DATE
                                                            END OF HEADER
28 17 12 17  6  0  0.0  .671688932925D-03  .329691829393D-11  .000000000000D+00
     .510000000000D+02  .388750000000D+02  .413874382386D-08 -.298634889006D+01
     .197440385818D-05  .199918186991D-01  .560656189919D-06  .515366951561D+04
     .216000000000D+05  .366941094398D-06 -.188052150677D+01  .122934579849D-06
     .986992072456D+00  .380031250000D+03 -.154136851833D+01 -.786461330700D-08
     .176793078427D-09  .100000000000D+01  .198000000000D+04  .000000000000D+00
     .240000000000D+01  .000000000000D+00 -.111758708954D-07  .510000000000D+02
     .144060000000D+05  .400000000000D+01
29 17 12 17  6  0  0.0  .524125061929D-03 -.522959453519D-11  .000000000000D+00
     .710000000000D+02 -.126937500000D+03  .402552482212D-08 -.257431411728D+01
    -.644661486149D-05  .410544918850D-03  .657886266708D-05  .515376795197D+04
     .216000000000D+05  .670552253723D-07 -.857953234247D+00 -.223517417908D-07
     .982898145950D+00  .262750000000D+03  .880521640735D+00 -.792354433314D-08
    -.291083553370D-09  .100000000000D+01  .198000000000D+04  .000000000000D+00
     .240000000000D+01  .000000000000D+00 -.102445483208D-07  .710000000000D+02
     .144060000000D+05  .400000000000D+01
30 17 12 17  6  0  0.0  .120146665722D-03 -.295585778076D-11  .000000000000D+00
     .550000000000D+02  .104937500000D+03  .451804533758D-08 -.377604589090D+00
     .552274286747D-05  .299926067237D-02  .904314219952D-05  .515360196877D+04
     .216000000000D+05  .242143869400D-07 -.295679878018D+01  .149011611938D-07
     .946296839690D+00  .197031250000D+03 -.307821624676D+01 -.806712174229D-08
     .989326923723D-10  .100000000000D+01  .198000000000D+04  .000000000000D+00
     .240000000000D+01  .000000000000D+00  .372529029846D-08  .550000000000D+02
     .144060000000D+05  .400000000000D+01
31 17 12 17  6  0  0.0  .154960434884D-03 -.261479726760D-11  .000000000000D+00
     .400000000000D+01  .112218750000D+03  .414695845175D-08 -.666041759678D+00
     .572018325329D-05  .882002187427D-02  .962056219578D-05  .515358200836D+04
     .216000000000D+05  .745058059692D-07 -.298091947880D+01 -.169500708580D-06
     .965340539634D+00  .191625000000D+03 -.197341036503D+00 -.788354266691D-08
     .147148986489D-09  .100000000000D+01  .198000000000D+04  .000000000000D+00
     .240000000000D+01  .000000000000D+00 -.135041773319D-07  .400000000000D+01
     .144060000000D+05  .400000000000D+01
32 17 12 17  6  0  0.0 -.530112534761D-03 -.170530256582D-11  .000000000000D+00
     .120000000000D+02 -.167187500000D+02  .454376069444D-08 -.312178744919D+01
    -.780448317528D-06  .150626921095D-02  .858865678310D-05  .515361150742D+04
     .216000000000D+05  .316649675369D-07  .221687637910D+01 -.353902578354D-07
     .957268163524D+00  .211312500000D+03 -.267345801242D+01 -.788389982464D-08
    -.508949771229D-09  .100000000000D+01  .198000000000D+04  .000000000000D+00
     .240000000000D+01  .000000000000D+00  .465661287308D-09  .120000000000D+02
     .144060000000D+05  .400000000000D+01
19 17 12 17  5 59 44.0 -.469451304525D-03  .227373675443D-11  .000000000000D+00
     .400000000000D+01 -.115000000000D+03  .409659921123D-08 -.931908090947D+00
    -.580959022045D-05  .976766704116D-02  .662729144096D-05  .515369415665D+04
     .215840000000D+05 -.298023223877D-07 -.820978799028D+00  .208616256714D-06
     .979120680809D+00  .261562500000D+03  .110344277708D+01 -.798318967475D-08
    -.262153776900D-09  .100000000000D+01  .198000000000D+04  .000000000000D+00
     .240000000000D+01  .000000000000D+00 -.153668224812D-07  .400000000000D+01
     .185160000000D+05  .400000000000D+01
16 17 12 17  5 59 44.0  .353460200131D-04 -.454747350886D-12  .000000000000D+00
     .100000000000D+01  .445937500000D+02  .421053252844D-08 -.298970655623D+01
     .221095979214D-05  .956914969720D-02  .119768083096D-05  .515355164909D+04
     .215840000000D+05 -.141561031342D-06 -.188489562743D+01 -.115483999252D-06
     .988155049904D+00  .373906250000D+03  .450156767751D+00 -.805069248651D-08
     .164292557730D-09  .100000000000D+01  .198000000000D+04  .000000000000D+00
     .240000000000D+01  .000000000000D+00 -.107102096081D-07  .100000000000D+01
     .185760000000D+05  .400000000000D+01
16 17 12 17  7 59 44.0  .353427603841D-04 -.454747350886D-12  .000000000000D+00
     .200000000000D+01  .377500000000D+02  .422267589140D-08 -.193951799685D+01
     .169314444065D-05  .957004725933D-02  .784173607826D-06  .515354961395D+04
     .287840000000D+05  .316649675369D-07 -.188495461668D+01 -.126659870148D-06
     .988156454306D+00  .378000000000D+03  .450222710246D+00 -.813069581897D-08
     .278225874939D-09  .100000000000D+01  .198000000000D+04  .000000000000D+00
     .240000000000D+01  .000000000000D+00 -.107102096081D-07  .200000000000D+01
     .216060000000D+05  .400000000000D+01
19 17 12 17  7 59 44.0 -.469435472041D-03  .227373675443D-11  .000000000000D+00
     .600000000000D+01 -.117875000000D+03  .410552815458D-08  .118295148816D+00
    -.607967376709D-05  .976726168301D-02  .636465847492D-05  .515369372177D+04
     .287840000000D+05 -.109896063805D-06 -.821036824211D+00  .987201929092D-07
     .979118637113D+00  .268656250000D+03  .110340452031D+01 -.805033532878D-08
    -.253224833545D-09  .100000000000D+01  .198000000000D+04  .000000000000D+00
     .240000000000D+01  .000000000000D+00 -.153668224812D-07  .600000000000D+01
     .216060000000D+05  .400000000000D+01
 1 17 12 17  8  0  0.0 -.173887237906D-04 -.261479726760D-11  .000000000000D+00
     .180000000000D+02 -.444062500000D+02  .416195907659D-08  .125731668607D+01
    -.215135514736D-05  .716518505942D-02  .111311674118D-04  .515368227386D+04
     .288000000000D+05 -.745058059692D-08  .134922522099D+00  .156462192535D-06
     .969891964511D+00  .169687500000D+03  .625566356687D+00 -.776960934970D-08
     .321799118511D-09  .100000000000D+01  .198000000000D+04  .000000000000D+00
     .240000000000D+01  .000000000000D+00  .558793544769D-08  .180000000000D+02
     .216060000000D+05  .400000000000D+01
 2 17 12 17  8  0  0.0  .253209378570D-03 -.100044417195D-10  .000000000000D+00
     .530000000000D+02 -.525937500000D+02  .447482925174D-08  .167651590996D+01
    -.296905636787D-05  .174697717885D-01  .110715627670D-04  .515365098572D+04
     .288000000000D+05 -.260770320892D-06  .772332853735D-01 -.432133674622D-06
     .948918113860D+00  .164375000000D+03 -.192701712048D+01 -.790711507737D-08
     .336442585613D-09  .100000000000D+01  .198000000000D+04  .000000000000D+00
     .240000000000D+01  .000000000000D+00 -.204890966415D-07  .530000000000D+02
     .216060000000D+05  .400000000000D+01
 3 17 12 17  8  0  0.0 -.257119536400D-04  .613908923697D-11  .000000000000D+00
     .150000000000D+02  .147187500000D+02  .493913430620D-08  .194601205990D+00
     .722706317902D-06  .115756317973D-02  .536441802979D-05  .515358776855D+04
     .288000000000D+05  .149011611938D-07  .117742666686D+01  .186264514923D-07
     .959997194777D+00  .273968750000D+03  .598306168573D+00 -.814605360154D-08
     .210723063176D-09  .100000000000D+01  .198000000000D+04  .000000000000D+00
     .240000000000D+01  .000000000000D+00  .232830643654D-08  .150000000000D+02
     .216060000000D+05  .400000000000D+01
 4 17 12 17  8  0  0.0  .272779725492D-04  .193267624127D-11  .000000000000D+00
     .710000000000D+02  .427812500000D+02  .558701843603D-08 -.161229661508D+01
     .226870179176D-05  .925912440289D-02  .827014446259D-06  .515365808487D+04
     .288000000000D+05  .169500708580D-06 -.193744661164D+01 -.633299350739D-07
     .980307751056D+00  .370718750000D+03  .894520761729D+00 -.819605568433D-08
     .221437795202D-09  .100000000000D+01  .198000000000D+04  .000000000000D+00
     .240000000000D+01  .630000000000D+02 -.195577740669D-07  .710000000000D+02
     .216060000000D+05  .400000000000D+01
 5 17 12 17  8  0  0.0 -.195531174541D-04  .113686837722D-11  .000000000000D+00
     .160000000000D+02  .184062500000D+02  .518593030053D-08 -.207859701299D+01
     .912696123123D-06  .528805865906D-02  .515580177307D-05  .515360010338D+04
     .288000000000D+05  .633299350739D-07  .115780356504D+01 -.279396772385D-07
     .946927686539D+00  .273250000000D+03  .633866550103D+00 -.827498754359D-08
     .274654297597D-09  .100000000000D+01  .198000000000D+04  .000000000000D+00
     .240000000000D+01  .000000000000D+00 -.107102096081D-07  .160000000000D+02
     .216060000000D+05  .400000000000D+01
 6 17 12 17  8  0  0.0  .413369387388D-03  .909494701773D-12  .000000000000D+00
     .830000000000D+02 -.391562500000D+02  .403838250056D-08  .154028143415D+01
    -.207871198654D-05  .758451875299D-03  .108107924461D-04  .515381062698D+04
     .288000000000D+05  .372529029846D-08  .126590878870D+00 -.391155481339D-07
     .969639674047D+00  .175156250000D+03 -.130441261260D+01 -.764281835406D-08
     .327513642258D-09  .100000000000D+01  .198000000000D+04  .000000000000D+00
     .240000000000D+01  .000000000000D+00  .465661287308D-08  .830000000000D+02
     .216060000000D+05  .400000000000D+01
 7 17 12 17  8  0  0.0  .264796428382D-03 -.534328137292D-11  .000000000000D+00
     .110000000000D+03  .103562500000D+03  .424089093584D-08  .592651937532D+00
     .553019344807D-05  .110775193898D-01  .998377799988D-05  .515371356010D+04
     .288000000000D+05 -.819563865662D-07 -.299278736954D+01  .219792127609D-06
     .960641466824D+00  .187750000000D+03 -.254526554985D+01 -.794211653532D-08
    -.132148361653D-10  .100000000000D+01  .198000000000D+04  .000000000000D+00
     .340000000000D+01  .000000000000D+00 -.111758708954D-07  .110000000000D+03
     .216060000000D+05  .400000000000D+01
